#cP2004  3 21  0  0  0.00000000      96 __d+D IGb00 FIT ESOC
## 1263      0.00000000   900.00000000 53085 0.0000000000000
+   27   G01G03G04G05G06G07G08G09G10G11G13G14G15G16G17G18G20
+        G21G22G24G25G26G27G28G29G30G31  0  0  0  0  0  0  0
+          0  0  0  0  0  0  0  0  0  0  0  0  0  0  0  0  0
+          0  0  0  0  0  0  0  0  0  0  0  0  0  0  0  0  0
+          0  0  0  0  0  0  0  0  0  0  0  0  0  0  0  0  0
++         4  5  4  4  4  4  5  4  4  4  5  4  4  4  4  4  4
++         4  5  4  4  5  4  4  4  4  5  0  0  0  0  0  0  0
++         0  0  0  0  0  0  0  0  0  0  0  0  0  0  0  0  0
++         0  0  0  0  0  0  0  0  0  0  0  0  0  0  0  0  0
++         0  0  0  0  0  0  0  0  0  0  0  0  0  0  0  0  0
%c G  cc GPS ccc cccc cccc cccc cccc ccccc ccccc ccccc ccccc
%c cc cc ccc ccc cccc cccc cccc cccc ccccc ccccc ccccc ccccc
%f  1.2500000  1.025000000  0.00000000000  0.000000000000000
%f  0.0000000  0.000000000  0.00000000000  0.000000000000000
%i    0    0    0    0      0      0      0      0         0
%i    0    0    0    0      0      0      0      0         0
/*                                                          
/*       ESA / EUROPEAN SPACE OPERATIONS CENTRE (ESOC)      
/*                                                          
/*                                                          
*  2004  3 21  8 45  0.00000000                             
PG01   -506.664603 -24366.186694  10694.462313    333.249885
PG03  11646.541453 -21418.830232  10166.221478     92.908493
PG04 -26175.675512   4981.589058  -2183.757333    -95.937440
PG05   7351.907964  20802.507967 -15034.841020     20.000974
PG06   8060.655782  19141.899931  16663.821776     -0.233855
PG07 -16009.812946   2808.456698 -20579.506172    594.227198
PG08 -25039.833877   -511.369900   9110.385911    335.821125
PG09  -2117.686356  16443.975414 -21107.260257    -37.959488
PG10  -9019.733275  11787.316666  21959.747191     38.858544
PG11   -283.953241 -16985.097099 -20403.093288    102.066206
PG13  -9205.963057 -15631.912987  19386.233229    -32.789243
PG14  15663.599999  -3734.972394 -21074.430487    -20.761726
PG15  26335.570330  -3697.609943   2080.935718    239.772528
PG16  12804.864950  -8629.672261  21685.801996     12.137447
PG17 -10327.066049  14953.506040  19267.302136    239.020597
PG18  19581.612842  17814.304072  -3269.186265    -22.631716
PG20 -11014.992658 -21490.100216 -11134.486908   -181.377843
PG21  19750.379451   7432.532714  16314.747469     71.487716
PG22  20810.024997   8378.985925 -14023.171659    -27.969878
PG24 -21223.351289  12216.326364  10673.315597     10.879058
PG25  24743.230976  -9618.881614    692.486671     60.521801
PG26  -7875.695605  24938.356400   1617.105565    384.777678
PG27 -17872.309020  -8086.784127  18612.434443     35.196533
PG28 -21536.745310  -8775.874092 -12920.336101     22.351406
PG29 -10840.975585  23008.629694   7799.757583    232.022766
PG30  18060.150135  19393.105512  -2712.497445    825.905402
PG31   3439.142351 -26055.444290  -2611.761940     40.690980
*  2004  3 21  9  0  0.00000000                             
PG01    -71.298757 -25340.429661   8078.441932    333.251206
PG03  11757.468564 -20062.166472  12531.703529     92.910889
PG04 -25846.255795   4649.378088  -4981.266421    -95.946433
PG05   5812.270346  19835.435154 -16899.885613     20.001600
PG06   7486.488015  20840.368003  14751.759955     -0.221073
PG07 -15646.763778    358.598298 -21048.174726    594.218712
PG08 -23933.841967  -1021.399619  11611.338037    335.811686
PG09  -4311.042337  17101.244541 -20178.811961    -37.961808
PG10 -10861.136885  10064.537739  22007.883251     38.857994
PG11   1890.810541 -17777.922459 -19614.349762    102.068276
PG13  -8624.712281 -17683.798644  17838.885784    -32.789386
PG14  15173.362429  -1330.065464 -21709.898618    -20.762366
PG15  25973.250457  -3391.316597   4898.862500    239.775365
PG16  14568.168040  -6948.495194  21169.780687     12.136916
PG17 -12426.280593  15186.833928  17705.529418    239.037943
PG18  19569.398632  18126.379376   -429.049890    -22.634324
PG20  -9846.236283 -20696.248797 -13497.049234   -181.375385
PG21  17888.017254   8066.581660  18029.166302     71.487400
PG22  21701.542381   9601.249394 -11722.606826    -27.963178
PG24 -22271.010150  12285.607026   8076.737470     10.880679
PG25  24745.025582  -9289.614202  -2128.992853     60.522825
PG26  -8026.242224  24506.874505   4520.596016    384.764786
PG27 -15937.653330  -8916.908572  19932.712634     35.227965
PG28 -22388.635063  -9853.146520 -10535.253791     22.352657
PG29 -10825.071854  21981.923829  10433.669254    232.024291
PG30  17535.770807  19321.920582  -5475.746757    825.915911
PG31   3798.881373 -26098.659980    211.062719     40.715523
*  2004  3 21  9 15  0.00000000                             
PG01    255.032435 -26038.886734   5323.973438    333.254306
PG03  11907.662897 -18457.575032  14677.958389     92.913703
PG04 -25242.567426   4197.230918  -7694.647100    -95.955360
PG05   4069.601684  18832.953782 -18478.602017     20.002450
PG06   7026.383698  22339.294737  12587.203220     -0.207968
PG07 -15396.161022  -2136.474590 -21140.834146    594.209868
PG08 -22597.971639  -1678.814660  13913.800682    335.802110
PG09  -6359.890337  17824.075321 -18912.351854    -37.963983
PG10 -12780.246765   8458.130255  21675.861304     38.857351
PG11   3933.761933 -18617.433989 -18487.312503    102.070164
PG13  -8191.000158 -19573.722850  15984.482128    -32.789257
PG14  14806.775226   1148.450313 -21970.124563    -20.762868
PG15  25326.940767  -2975.469994   7633.274286    239.779743
PG16  16356.368064  -5411.735405  20291.973389     12.136041
PG17 -14326.835249  15482.843665  15834.587755    239.055364
PG18  19335.524345  18224.354090   2418.377405    -22.637698
PG20  -8440.186148 -19805.563622 -15628.320556   -181.373123
PG21  15890.708279   8851.372604  19436.360296     71.487242
PG22  22453.860277  10589.622390  -9218.174142    -27.956606
PG24 -23029.432739  12317.730444   5343.131398     10.882446
PG25  24477.126690  -8821.973929  -4913.613212     60.522602
PG26  -8144.509539  23757.601811   7342.841283    384.752433
PG27 -13930.234868  -9898.771077  20927.662818     35.259516
PG28 -23080.863104 -10702.952475  -7970.313058     22.353932
PG29 -10824.220449  20672.919607  12889.471683    232.025287
PG30  16768.103997  19089.588115  -8145.833669    825.926479
PG31   4122.257396 -25839.756094   3030.144469     40.740402
*  2004  3 21  9 30  0.00000000                             
PG01    505.823237 -26439.517140   2478.079456    333.255564
PG03  12125.939159 -16633.423521  16567.530935     92.917211
PG04 -24389.488160   3596.367729 -10277.955435    -95.964684
PG05   2143.794179  17833.059012 -19744.165908     20.004092
PG06   6657.514699  23605.015891  10206.680668     -0.194519
PG07 -15264.467732  -4627.716488 -20856.292769    594.201433
PG08 -21068.674607  -2502.915225  15977.616934    335.792751
PG09  -8231.603821  18580.804558 -17327.501691    -37.964828
PG10 -14735.465662   6996.789109  20970.293122     38.856548
PG11   5814.211936 -19473.059752 -17041.080867    102.072181
PG13  -7886.476066 -21259.329129  13855.161568    -32.789208
PG14  14575.008446   3651.356112 -21850.553968    -20.763397
PG15  24419.914834  -2419.414865  10237.149902    239.784672
PG16  18126.196621  -4039.485521  19067.307279     12.135576
PG17 -15996.128908  15807.718120  13685.460209    239.072648
PG18  18856.847116  18137.723693   5224.739542    -22.640686
PG20  -6805.065179 -18860.366035 -17491.950778   -181.370858
PG21  13803.204568   9791.225363  20511.338084     71.487366
PG22  23027.507322  11352.320801  -6553.668005    -27.949969
PG24 -23495.191062  12273.362975   2518.590145     10.885521
PG25  23961.247146  -8187.359217  -7612.842671     60.524422
PG26  -8269.894199  22698.430429  10032.918847    384.739811
PG27 -11893.437154 -11026.988687  21580.473679     35.291089
PG28 -23576.751134 -11338.382576  -5269.716090     22.354988
PG29 -10874.642691  19103.790300  15125.901627    232.026784
PG30  15748.801573  18732.360928 -10677.645859    825.937082
PG31   4444.461077 -25277.997652   5795.735446     40.763906
*  2004  3 21  9 45  0.00000000                             
PG01    717.866103 -26528.684293   -410.449570    333.258507
PG03  12436.123762 -14624.499355  18167.559971     92.921211
PG04 -23318.358499   2823.578685 -12687.312275    -95.973457
PG05     61.850043  16870.560501 -20674.961307     20.006231
PG06   6351.888094  24610.071074   7650.605377     -0.181918
PG07 -15250.243466  -7065.965134 -20200.318418    594.192523
PG08 -19387.084403  -3505.668454  17766.450403    335.783330
PG09  -9899.852740  19335.212845 -15449.362948    -37.966770
PG10 -16681.622225   5701.504433  19904.188852     38.857162
PG11   7507.785940 -20310.385854 -15300.327677    102.074191
PG13  -7685.905982 -22703.810285  11487.734183    -32.789409
PG14  14480.945989   6128.183656 -21353.223744    -20.763827
PG15  23282.498252  -1697.863928  12665.386352    239.788780
PG16  19832.450471  -2843.918362  17516.607978     12.134790
PG17 -17409.056129  16123.481580  11294.518774    239.090144
PG18  18117.454655  17900.827154   7942.384249    -22.643403
PG20  -4957.493668 -17901.997520 -19056.192878   -181.368380
PG21  11671.631922  10882.387692  21234.609859     71.487287
PG22  23387.048769  11905.512431  -3775.543251    -27.943242
PG24 -23673.540408  12114.224945   -348.947059     10.887868
PG25  23225.854793  -7362.754788 -10179.239274     60.525183
PG26  -8440.132555  21346.954092  12542.265564    384.727389
PG27  -9869.733713 -12288.557450  21879.582044     35.322393
PG28 -23844.303126 -11779.810609  -2479.679832     22.356272
PG29 -11008.458796  17304.301359  17105.620900    232.028528
PG30  14477.476724  18288.553500 -13028.584692    825.947535
PG31   4800.202264 -24421.533577   8458.706282     40.787665
EOF                                                         
